{"type": "FeatureCollection", "features": [{"type": "Feature", "properties": {"norad_id": 24876, "name": "GPS BIIR-2  (PRN 13)", "group": "gnss", "lat": 33.17009394808635, "lon": 132.1824006436654, "alt_km": 19930.71167949697, "timestamp": "2025-12-11T07:02:23.972101+00:00", "meta": {"OBJECT_NAME": "GPS BIIR-2  (PRN 13)", "OBJECT_ID": "1997-035A", "EPOCH": "2025-12-10T17:43:14.127744", "MEAN_MOTION": 2.00563589, "ECCENTRICITY": 0.00967572, "INCLINATION": 55.8943, "RA_OF_ASC_NODE": 105.9472, "ARG_OF_PERICENTER": 57.0036, "MEAN_ANOMALY": 303.9018, "EPHEMERIS_TYPE": 0, "CLASSIFICATION_TYPE": "U", "NORAD_CAT_ID": 24876, "ELEMENT_SET_NO": 999, "REV_AT_EPOCH": 20817, "BSTAR": 0, "MEAN_MOTION_DOT": 2.2e-07, "MEAN_MOTION_DDOT": 0}, "tle": {"line1": "1 24876U 97035A   25344.73835796  .00000022  00000+0  00000+0 0  9999", "line2": "2 24876  55.8943 105.9472 0096757  57.0036 303.9018  2.00563589208176"}}, "geometry": {"type": "Point", "coordinates": [132.1824006436654, 33.17009394808635]}}, {"type": "Feature", "properties": {"norad_id": 26360, "name": "GPS BIIR-4  (PRN 20)", "group": "gnss", "lat": 36.74407618341748, "lon": 175.44872117207618, "alt_km": 20210.167940007712, "timestamp": "2025-12-11T07:02:23.972149+00:00", "meta": {"OBJECT_NAME": "GPS BIIR-4  (PRN 20)", "OBJECT_ID": "2000-025A", "EPOCH": "2025-12-10T20:16:55.528032", "MEAN_MOTION": 2.0056782, "ECCENTRICITY": 0.0038863, "INCLINATION": 55.0441, "RA_OF_ASC_NODE": 26.9144, "ARG_OF_PERICENTER": 241.8147, "MEAN_ANOMALY": 288.0709, "EPHEMERIS_TYPE": 0, "CLASSIFICATION_TYPE": "U", "NORAD_CAT_ID": 26360, "ELEMENT_SET_NO": 999, "REV_AT_EPOCH": 18749, "BSTAR": 0, "MEAN_MOTION_DOT": -9.8e-07, "MEAN_MOTION_DDOT": 0}, "tle": {"line1": "1 26360U 00025A   25344.84508713 -.00000098  00000+0  00000+0 0  9994", "line2": "2 26360  55.0441  26.9144 0038863 241.8147 288.0709  2.00567820187492"}}, "geometry": {"type": "Point", "coordinates": [175.44872117207618, 36.74407618341748]}}, {"type": "Feature", "properties": {"norad_id": 26407, "name": "GPS BIIR-5  (PRN 22)", "group": "gnss", "lat": -21.14593233041566, "lon": -153.143496629492, "alt_km": 19899.924300505685, "timestamp": "2025-12-11T07:02:23.972167+00:00", "meta": {"OBJECT_NAME": "GPS BIIR-5  (PRN 22)", "OBJECT_ID": "2000-040A", "EPOCH": "2025-12-10T20:12:24.039360", "MEAN_MOTION": 2.00567911, "ECCENTRICITY": 0.01261207, "INCLINATION": 54.8911, "RA_OF_ASC_NODE": 222.6445, "ARG_OF_PERICENTER": 301.7739, "MEAN_ANOMALY": 65.4404, "EPHEMERIS_TYPE": 0, "CLASSIFICATION_TYPE": "U", "NORAD_CAT_ID": 26407, "ELEMENT_SET_NO": 999, "REV_AT_EPOCH": 18617, "BSTAR": 0, "MEAN_MOTION_DOT": 0, "MEAN_MOTION_DDOT": 0}, "tle": {"line1": "1 26407U 00040A   25344.84194490  .00000000  00000+0  00000+0 0  9998", "line2": "2 26407  54.8911 222.6445 0126120 301.7739  65.4404  2.00567911186173"}}, "geometry": {"type": "Point", "coordinates": [-153.143496629492, -21.14593233041566]}}, {"type": "Feature", "properties": {"norad_id": 27663, "name": "GPS BIIR-8  (PRN 16)", "group": "gnss", "lat": 50.08743754699748, "lon": -14.630395623270493, "alt_km": 19967.584273116827, "timestamp": "2025-12-11T07:02:23.972182+00:00", "meta": {"OBJECT_NAME": "GPS BIIR-8  (PRN 16)", "OBJECT_ID": "2003-005A", "EPOCH": "2025-12-10T07:26:08.155104", "MEAN_MOTION": 2.00571007, "ECCENTRICITY": 0.0147361, "INCLINATION": 54.9239, "RA_OF_ASC_NODE": 222.475, "ARG_OF_PERICENTER": 51.7666, "MEAN_ANOMALY": 67.0717, "EPHEMERIS_TYPE": 0, "CLASSIFICATION_TYPE": "U", "NORAD_CAT_ID": 27663, "ELEMENT_SET_NO": 999, "REV_AT_EPOCH": 16752, "BSTAR": 0, "MEAN_MOTION_DOT": 1e-08, "MEAN_MOTION_DDOT": 0}, "tle": {"line1": "1 27663U 03005A   25344.30981661  .00000001  00000+0  00000+0 0  9993", "line2": "2 27663  54.9239 222.4750 0147361  51.7666  67.0717  2.00571007167524"}}, "geometry": {"type": "Point", "coordinates": [-14.630395623270493, 50.08743754699748]}}, {"type": "Feature", "properties": {"norad_id": 28190, "name": "GPS BIIR-11 (PRN 19)", "group": "gnss", "lat": -54.98950334802146, "lon": -168.40818491695865, "alt_km": 20242.57900811573, "timestamp": "2025-12-11T07:02:23.972222+00:00", "meta": {"OBJECT_NAME": "GPS BIIR-11 (PRN 19)", "OBJECT_ID": "2004-009A", "EPOCH": "2025-12-10T22:23:41.078112", "MEAN_MOTION": 2.00560808, "ECCENTRICITY": 0.01083229, "INCLINATION": 54.9873, "RA_OF_ASC_NODE": 283.2917, "ARG_OF_PERICENTER": 167.6172, "MEAN_ANOMALY": 200.0934, "EPHEMERIS_TYPE": 0, "CLASSIFICATION_TYPE": "U", "NORAD_CAT_ID": 28190, "ELEMENT_SET_NO": 999, "REV_AT_EPOCH": 15917, "BSTAR": 0, "MEAN_MOTION_DOT": -6.8e-07, "MEAN_MOTION_DDOT": 0}, "tle": {"line1": "1 28190U 04009A   25344.93311433 -.00000068  00000+0  00000+0 0  9991", "line2": "2 28190  54.9873 283.2917 0108322 167.6172 200.0934  2.00560808159176"}}, "geometry": {"type": "Point", "coordinates": [-168.40818491695865, -54.98950334802146]}}, {"type": "Feature", "properties": {"norad_id": 28474, "name": "GPS BIIR-13 (PRN 02)", "group": "gnss", "lat": -25.410366427441197, "lon": -46.801914122127165, "alt_km": 19756.20981094419, "timestamp": "2025-12-11T07:02:23.972236+00:00", "meta": {"OBJECT_NAME": "GPS BIIR-13 (PRN 02)", "OBJECT_ID": "2004-045A", "EPOCH": "2025-12-10T20:11:07.899360", "MEAN_MOTION": 2.00569385, "ECCENTRICITY": 0.01707279, "INCLINATION": 55.2416, "RA_OF_ASC_NODE": 332.4821, "ARG_OF_PERICENTER": 309.1641, "MEAN_ANOMALY": 52.133, "EPHEMERIS_TYPE": 0, "CLASSIFICATION_TYPE": "U", "NORAD_CAT_ID": 28474, "ELEMENT_SET_NO": 999, "REV_AT_EPOCH": 15465, "BSTAR": 0, "MEAN_MOTION_DOT": -8.5e-07, "MEAN_MOTION_DDOT": 0}, "tle": {"line1": "1 28474U 04045A   25344.84106365 -.00000085  00000+0  00000+0 0  9991", "line2": "2 28474  55.2416 332.4821 0170727 309.1641  52.1330  2.00569385154654"}}, "geometry": {"type": "Point", "coordinates": [-46.801914122127165, -25.410366427441197]}}, {"type": "Feature", "properties": {"norad_id": 28874, "name": "GPS BIIRM-1 (PRN 17)", "group": "gnss", "lat": -51.79137140558026, "lon": -141.86998985868746, "alt_km": 19839.13661512653, "timestamp": "2025-12-11T07:02:23.972249+00:00", "meta": {"OBJECT_NAME": "GPS BIIRM-1 (PRN 17)", "OBJECT_ID": "2005-038A", "EPOCH": "2025-12-10T14:00:21.521088", "MEAN_MOTION": 2.00578486, "ECCENTRICITY": 0.0131701, "INCLINATION": 55.0338, "RA_OF_ASC_NODE": 280.7877, "ARG_OF_PERICENTER": 293.4518, "MEAN_ANOMALY": 200.7371, "EPHEMERIS_TYPE": 0, "CLASSIFICATION_TYPE": "U", "NORAD_CAT_ID": 28874, "ELEMENT_SET_NO": 999, "REV_AT_EPOCH": 14805, "BSTAR": 0, "MEAN_MOTION_DOT": -6.4e-07, "MEAN_MOTION_DDOT": 0}, "tle": {"line1": "1 28874U 05038A   25344.58358242 -.00000064  00000+0  00000+0 0  9999", "line2": "2 28874  55.0338 280.7877 0131701 293.4518 200.7371  2.00578486148057"}}, "geometry": {"type": "Point", "coordinates": [-141.86998985868746, -51.79137140558026]}}, {"type": "Feature", "properties": {"norad_id": 28899, "name": "INMARSAT 4-F2 (SOUTHPAN/PRN 122)", "group": "gnss", "lat": -4.67512576377598, "lon": -30.555145331696085, "alt_km": 35781.78223277806, "timestamp": "2025-12-11T07:02:23.972264+00:00", "meta": {"OBJECT_NAME": "INMARSAT 4-F2 (SOUTHPAN/PRN 122)", "OBJECT_ID": "2005-044A", "EPOCH": "2025-12-10T14:00:51.595200", "MEAN_MOTION": 1.00271091, "ECCENTRICITY": 0.0003069, "INCLINATION": 4.8502, "RA_OF_ASC_NODE": 43.6861, "ARG_OF_PERICENTER": 219.1884, "MEAN_ANOMALY": 170.4022, "EPHEMERIS_TYPE": 0, "CLASSIFICATION_TYPE": "U", "NORAD_CAT_ID": 28899, "ELEMENT_SET_NO": 999, "REV_AT_EPOCH": 7363, "BSTAR": 0, "MEAN_MOTION_DOT": -2.58e-06, "MEAN_MOTION_DDOT": 0}, "tle": {"line1": "1 28899U 05044A   25344.58393050 -.00000258  00000+0  00000+0 0  9994", "line2": "2 28899   4.8502  43.6861 0003069 219.1884 170.4022  1.00271091 73632"}}, "geometry": {"type": "Point", "coordinates": [-30.555145331696085, -4.67512576377598]}}, {"type": "Feature", "properties": {"norad_id": 29486, "name": "GPS BIIRM-2 (PRN 31)", "group": "gnss", "lat": -8.801397167379179, "lon": -14.906650458301437, "alt_km": 20397.73385339122, "timestamp": "2025-12-11T07:02:23.972278+00:00", "meta": {"OBJECT_NAME": "GPS BIIRM-2 (PRN 31)", "OBJECT_ID": "2006-042A", "EPOCH": "2025-12-10T18:35:54.519648", "MEAN_MOTION": 2.00554204, "ECCENTRICITY": 0.01073597, "INCLINATION": 54.6939, "RA_OF_ASC_NODE": 158.8186, "ARG_OF_PERICENTER": 51.9152, "MEAN_ANOMALY": 123.7475, "EPHEMERIS_TYPE": 0, "CLASSIFICATION_TYPE": "U", "NORAD_CAT_ID": 29486, "ELEMENT_SET_NO": 999, "REV_AT_EPOCH": 14061, "BSTAR": 0, "MEAN_MOTION_DOT": 8e-07, "MEAN_MOTION_DDOT": 0}, "tle": {"line1": "1 29486U 06042A   25344.77493657  .00000080  00000+0  00000+0 0  9993", "line2": "2 29486  54.6939 158.8186 0107359  51.9152 123.7475  2.00554204140615"}}, "geometry": {"type": "Point", "coordinates": [-14.906650458301437, -8.801397167379179]}}, {"type": "Feature", "properties": {"norad_id": 29601, "name": "GPS BIIRM-3 (PRN 12)", "group": "gnss", "lat": -49.31067268622251, "lon": 96.07160227839606, "alt_km": 20406.045906819134, "timestamp": "2025-12-11T07:02:23.972290+00:00", "meta": {"OBJECT_NAME": "GPS BIIRM-3 (PRN 12)", "OBJECT_ID": "2006-052A", "EPOCH": "2025-12-09T22:55:07.366368", "MEAN_MOTION": 2.00573319, "ECCENTRICITY": 0.00877524, "INCLINATION": 54.9712, "RA_OF_ASC_NODE": 221.5087, "ARG_OF_PERICENTER": 87.406, "MEAN_ANOMALY": 273.6761, "EPHEMERIS_TYPE": 0, "CLASSIFICATION_TYPE": "U", "NORAD_CAT_ID": 29601, "ELEMENT_SET_NO": 999, "REV_AT_EPOCH": 13961, "BSTAR": 0, "MEAN_MOTION_DOT": 3e-08, "MEAN_MOTION_DDOT": 0}, "tle": {"line1": "1 29601U 06052A   25343.95494637  .00000003  00000+0  00000+0 0  9996", "line2": "2 29601  54.9712 221.5087 0087752  87.4060 273.6761  2.00573319139619"}}, "geometry": {"type": "Point", "coordinates": [96.07160227839606, -49.31067268622251]}}]}